{
  "type": "Feature",
  "properties": {
    "description": "Rectangle from bounding edges",
    "crs_original": "EPSG:32633"
  },
  "geometry": {
    "type": "Polygon",
    "coordinates": [
      [
        [
          14.50957965445222,
          45.96251879260656
        ],
        [
          14.587012218762565,
          45.96282484858388
        ],
        [
          14.586476204093872,
          46.03482574377102
        ],
        [
          14.508943149525608,
          46.03451892232632
        ],
        [
          14.50957965445222,
          45.96251879260656
        ]
      ]
    ]
  }
}