{
    "type": "FeatureCollection",
    "features": [
        {
            "type": "Feature",
            "properties": {},
            "geometry": {
                "coordinates": [
                    [
                        [
                            462853.3390215645,
                            5097365.1643672185
                        ],
                        [
                            462853.3390215645,
                            5091343.376490875
                        ],
                        [
                            468828.1484249318,
                            5091343.376490875
                        ],
                        [
                            468828.1484249318,
                            5097365.1643672185
                        ],
                        [
                            462853.3390215645,
                            5097365.1643672185
                        ]
                    ]
                ],
                "type": "Polygon"
            }
        }
    ],
    "crs": {
        "type": "name",
        "properties": {
            "name": "urn:ogc:def:crs:EPSG::32633"
        }
    }
}